#dP2019  6 22  0  0  0.00000000      96 __u+U ITR00 FIT  IAC
## 2058 518400.00000000   900.00000000 58656 0.0000000000000
+   98   C01C02C03C05C06C07C08C09C10C11C12C13C14C16E01E02E03
+        E04E05E07E08E09E11E12E13E14E15E18E19E21E24E25E26E27
+        E30E31E33E36G01G02G03G04G05G06G07G08G09G10G11G12G13
+        G14G15G16G17G18G19G20G21G22G23G24G25G26G27G28G29G30
+        G31G32J01J02J03J07R01R02R03R04R05R07R08R09R10R11R12
+        R13R14R15R16R17R18R19R20R21R22R23R24R26  0  0  0  0
++        13 12 13 12  9  8  9  8  8  8  8  9  8  9  5  5  5
++         6  6  5  5  6  5  5  5  5  5  6  5  5  5  6  5  5
++         5  6  5  5  4  4  4  4  3  4  4  4  4  3  4  4  3
++         4  3  3  4  4  4  3  3  4  4  4  4  3  4  4  3  3
++         3  4  9 11 10 14  5  6  6  6  5  5  5  5  5  5 10
++         6  5  5  6  5  5  6  6  5  5  5  6  8  0  0  0  0
%c M  cc GPS ccc cccc cccc cccc cccc ccccc ccccc ccccc ccccc
%c cc cc ccc ccc cccc cccc cccc cccc ccccc ccccc ccccc ccccc
%f  0.0000000  0.000000000  0.00000000000  0.000000000000000
%f  0.0000000  0.000000000  0.00000000000  0.000000000000000
%i    0    0    0    0      0      0      0      0         0
%i    0    0    0    0      0      0      0      0         0
/*                                                          
/*   RSA / INFORMATION & ANALYSIS CENTER (IAC) OF MCC       
/*   ULTRA-RAPID DETERMINATION                              
/* PCV:IGS14_2056 OL/AL:FES2004  NONE     YN ORB:CoN CLK:CoN
*  2019 06 22  3  0  0.00000000
PC01 -32318.255111  27042.958178   1035.957727    743.396979
PC02   4335.757377  41931.580992   -960.999732     81.633319
PC03 -14796.083674  39448.872311    281.653004    588.466087
PC05  21851.262637  36008.964245   -806.163356   -286.514428
PC06  -7799.548626  26608.481407 -31324.177978    605.254836
PC07 -22805.900450  24957.159926  25045.532396    129.004370
PC08 -17105.422531  38472.959269   4339.937893    166.316822
PC09   6273.031895  35169.028889 -21875.039749    860.594766
PC10  -5030.274858  26798.497848  32227.690176   -866.477282
PC11  -4943.641504  22276.067654  16152.698532    264.264270
PC12 -16581.130202  -5918.644913  21687.625941    788.936238
PC13  -8042.743699  40523.773557  -8991.133231   -793.026842
PC14 -20288.153476   7735.206415 -17483.474298    555.863383
PC16  -4465.346205  28458.561201 -30689.516206   -910.836983
PE01 -23812.939534  15748.882727   7799.544588   -631.314000
PE02  23781.076201 -15776.476965  -7855.796581     65.910353
PE03  14850.507460  -9872.011167  23636.923468   -180.035058
PE04   4311.926622  21205.583407 -20184.444513   -307.850137
PE05  25440.318021   7335.953395  13247.825769   -472.979448
PE07 -21092.559858 -20185.355866   4862.360012   -211.956970
PE08  -4632.639244 -21104.633518  20236.322882   6335.921957
PE09  21320.723382  19971.079173  -4812.333111   6401.472115
PE11   9972.199119  20941.914077 -18385.462241   5671.604618
PE12  -2645.032692  29455.826730   -930.039484   6334.740760
PE13  -9929.221009 -21030.741559  18316.848685    388.878284
PE14 -16711.708386  -1563.768828  16644.086320   -614.530910
PE15   2271.317471 -29488.828551   1283.869899    905.940225
PE18  20394.779574  -5272.204358 -24774.510024   -710.820318
PE19 -16338.192055   8200.370978 -23268.962599     -5.629854
PE21 -27145.449799   3596.442335 -11232.827754   -540.313681
PE24  14691.592106  10618.046263  23386.522989   6015.974627
PE25  27138.759858  -3555.222649  11286.662895   1765.721779
PE26 -16522.355451   -312.763963  24557.031808   4425.858247
PE27 -14451.776068 -10683.242155 -23517.129329    444.311542
PE30   6526.470725 -18636.373711 -22060.025451   4770.846265
PE31  -6674.483586  18662.342420  21986.371554   -465.841349
PE33 -13181.239229  20690.067349  16558.435846   -469.915670
PE36  16352.633771    205.973751 -24671.122278    696.741110
PG01 -14018.926285  21959.105713   3984.233486    -47.336702
PG02  16792.587129  -4604.344280 -19408.895112   -242.962143
PG03 -15951.090080  12822.705927 -16923.785831    184.651496
PG04  10299.226586  23848.066519  -5533.051846    168.727431
PG05  26589.196057  -2104.746119   -472.005441      0.431848
PG06  11061.577052  10663.710545 -21618.377731    171.139652
PG07  -4568.036920  24111.141392   9786.024227    -49.300004
PG08 -12804.992117   7890.679095  21924.487969   -148.347400
PG09   5443.399837  23045.645695 -12057.589330    386.692719
PG10 -15313.709789 -11773.360922  18381.102481      8.482198
PG11  -9684.256999  21394.139322  12117.782351   -578.981473
PG12  18360.283588 -10669.172767 -16061.193854    230.915410
PG13  16861.248542   2444.027929  20280.232075    -57.979775
PG14 -17791.816311 -16512.445506 -10670.928576    -74.986482
PG15  12285.958878  -9938.100593  21081.463736   -305.581991
PG16 -26790.885208   -625.108022    -86.585051    -50.035550
PG17  15059.165059  21690.890619  -2864.098336     75.800563
PG18 -16429.929132  16675.284149  11928.177510     63.897835
PG19  17238.684289  17328.900729 -10614.720741   -303.590458
PG20  -5679.006781 -14928.110416  21130.030090    525.532722
PG21  -1253.670090 -23024.284952  14115.690236   -168.652381
PG22 -21709.586069  10901.367914 -10410.783905   -720.560249
PG23  -5976.521655  16337.045690 -19617.043774   -180.686832
PG24  14662.090396 -20661.238025   7229.184277    -67.767482
PG25   4806.639657 -15068.121408 -21512.438461   -767.681512
PG26 -24075.947156  -5116.161046 -10227.551499    232.917535
PG27 -18392.795862  -5071.165757  18493.743103   -164.344182
PG28  13654.249782  13149.733043  19167.857084    767.272887
PG29   -897.465155 -21758.013005 -15236.787866    170.378740
PG30   3797.847531  19582.144243  17469.641190   -128.530475
PG31 -12411.074458  -8980.120089 -21672.287784     29.439459
PG32 -16986.305038 -20112.493418  -3917.944506    -33.532095
PJ01 -30350.768967  15880.890691 -19894.905110   -284.103063
PJ02 -29186.400559  30263.192276   7340.264008 999999.999999
PJ03 -24955.042143  24268.709691  28869.579183      1.142919
PJ07 -25366.770302  33667.921742    -17.002309     -0.023278
PR01   4015.381059 -10368.972647  22964.542756     45.691074
PR02 -16023.841120 -14469.976326  13670.107343    374.697142
PR03 -23651.526954  -9005.179338  -3324.590319     -2.895077
PR04 -17155.541081   2040.619585 -18750.595106    311.018541
PR05  -1515.328168  11128.113217 -22884.906146     30.502341
PR07  23639.606541   8674.127203   3995.343811    -22.177575
PR08  17659.811273  -1595.620950  18391.826620     17.115914
PR09   6308.117135   9210.801742  22948.356005     76.298071
PR10  17807.143667  -2138.413055  18158.522103     52.726872
PR11  21282.061042 -13970.716242   2007.566138    -70.236575
PR12      0.000000      0.000000      0.000000 999999.999999
PR13  -4288.431456 -10284.319646 -22963.006528    -25.143925
PR14 -17917.355320   2202.084427 -18001.445958     40.177772
PR15 -21417.159354  13553.105772  -2844.098215    102.680714
PR16 -12224.592323  17460.871364  14076.298358      8.297265
PR17 -10609.616256  -9546.827563  21135.606119    237.657730
PR18  -9199.541590   9010.622276  22015.697353     -2.414145
PR19  -3393.979565  22738.158134  11046.250835    -37.647447
PR20   5264.913037  23555.592362  -8176.036449   -381.995891
PR21  10592.207146   8919.025834 -21432.639199    -55.391218
PR22   8431.159989 -11951.552925 -20935.074999    -25.026585
PR23    508.698242 -24811.514602  -5922.107144    235.927059
PR24  -6415.264087 -22639.746684   9839.027521   -181.800335
PR26   4592.596624  24524.864124  -5353.243981     -4.769832
EOF
